{
    "links": {
        "self": "http://www.neowsapp.com/rest/v1/neo/54065907?api_key=iIulBulltgU6a56xZRHN4H3l9WmuAYTsLGpBGhQ2"
    },
    "id": "54065907",
    "neo_reference_id": "54065907",
    "name": "(2020 TY5)",
    "designation": "2020 TY5",
    "nasa_jpl_url": "http://ssd.jpl.nasa.gov/sbdb.cgi?sstr=54065907",
    "absolute_magnitude_h": 25.415,
    "estimated_diameter": {
        "kilometers": {
            "estimated_diameter_min": 0.0219560887,
            "estimated_diameter_max": 0.0490953069
        },
        "meters": {
            "estimated_diameter_min": 21.9560886998,
            "estimated_diameter_max": 49.0953068527
        },
        "miles": {
            "estimated_diameter_min": 0.0136428768,
            "estimated_diameter_max": 0.0305063999
        },
        "feet": {
            "estimated_diameter_min": 72.0344140497,
            "estimated_diameter_max": 161.0738465346
        }
    },
    "is_potentially_hazardous_asteroid": false,
    "close_approach_data": [
        {
            "close_approach_date": "2020-10-17",
            "close_approach_date_full": "2020-Oct-17 09:53",
            "epoch_date_close_approach": 1602928380000,
            "relative_velocity": {
                "kilometers_per_second": "6.7213779364",
                "kilometers_per_hour": "24196.9605709003",
                "miles_per_hour": "15035.0503058464"
            },
            "miss_distance": {
                "astronomical": "0.1114138401",
                "lunar": "43.3399837989",
                "kilometers": "16667273.167480587",
                "miles": "10356563.3060506206"
            },
            "orbiting_body": "Earth"
        }
    ],
    "orbital_data": {
        "orbit_id": "3",
        "orbit_determination_date": "2020-10-19 08:22:15",
        "first_observation_date": "2020-10-14",
        "last_observation_date": "2020-10-19",
        "data_arc_in_days": 5,
        "observations_used": 24,
        "orbit_uncertainty": "8",
        "minimum_orbit_intersection": ".109387",
        "jupiter_tisserand_invariant": "4.509",
        "epoch_osculation": "2459137.5",
        "eccentricity": ".2608121689534408",
        "semi_major_axis": "1.487453512598223",
        "inclination": "11.77912486110002",
        "ascending_node_longitude": "20.02680947576716",
        "orbital_period": "662.6184576735272",
        "perihelion_distance": "1.099507535760066",
        "perihelion_argument": "16.56977748634057",
        "aphelion_distance": "1.87539948943638",
        "perihelion_time": "2459151.468899416007",
        "mean_anomaly": "352.4107097658903",
        "mean_motion": ".5432990823466803",
        "equinox": "J2000",
        "orbit_class": {
            "orbit_class_type": "AMO",
            "orbit_class_description": "Near-Earth asteroid orbits similar to that of 1221 Amor",
            "orbit_class_range": "1.017 AU < q (perihelion) < 1.3 AU"
        }
    },
    "is_sentry_object": false
}